{"type": "FeatureCollection", "features": [ {"type": "Feature", "properties": {"norad_id": 28659, "name": "DIRECTV 8", "group": "intelsat", "lat": -0.0004995139543249015, "lon": -45.671586364442646, "alt_km": 35773.87178094454, "timestamp": "2025-12-27T22:26:48.280227+00:00", "meta": {"OBJECT_NAME": "DIRECTV 8", "OBJECT_ID": "2005-019A", "EPOCH": "2025-12-27T10:43:25.907232", "MEAN_MOTION": 1.00271631, "ECCENTRICITY": 0.0003224, "INCLINATION": 0.0255, "RA_OF_ASC_NODE": 282.5158, "ARG_OF_PERICENTER": 5.6349, "MEAN_ANOMALY": 209.8441, "EPHEMERIS_TYPE": 0, "CLASSIFICATION_TYPE": "U", "NORAD_CAT_ID": 28659, "ELEMENT_SET_NO": 999, "REV_AT_EPOCH": 7535, "BSTAR": 0, "MEAN_MOTION_DOT": 2.4e-07, "MEAN_MOTION_DDOT": 0}, "tle": {"line1": "1 28659U 05019A   25361.44682763  .00000024  00000+0  00000+0 0  9996", "line2": "2 28659   0.0255 282.5158 0003224   5.6349 209.8441  1.00271631 75352"}}, "geometry": {"type": "Point", "coordinates": [-45.671586364442646, -0.0004995139543249015]}}, {"type": "Feature", "properties": {"norad_id": 28702, "name": "GALAXY 28 (G-28)", "group": "intelsat", "lat": -2.860485958445502, "lon": -5.903379987274508, "alt_km": 35699.973031904476, "timestamp": "2025-12-27T22:26:48.280239+00:00", "meta": {"OBJECT_NAME": "GALAXY 28 (G-28)", "OBJECT_ID": "2005-022A", "EPOCH": "2025-12-27T10:54:32.343264", "MEAN_MOTION": 1.00599384, "ECCENTRICITY": 0.0003395, "INCLINATION": 2.8575, "RA_OF_ASC_NODE": 81.111, "ARG_OF_PERICENTER": 162.0273, "MEAN_ANOMALY": 296.8152, "EPHEMERIS_TYPE": 0, "CLASSIFICATION_TYPE": "U", "NORAD_CAT_ID": 28702, "ELEMENT_SET_NO": 999, "REV_AT_EPOCH": 5025, "BSTAR": 0, "MEAN_MOTION_DOT": -2.36e-06, "MEAN_MOTION_DDOT": 0}, "tle": {"line1": "1 28702U 05022A   25361.45454101 -.00000236  00000+0  00000+0 0  9999", "line2": "2 28702   2.8575  81.1110 0003395 162.0273 296.8152  1.00599384 50255"}}, "geometry": {"type": "Point", "coordinates": [-5.903379987274508, -2.860485958445502]}}, {"type": "Feature", "properties": {"norad_id": 29236, "name": "GALAXY 16 (G-16)", "group": "intelsat", "lat": 0.021063312975640746, "lon": -25.633673259840723, "alt_km": 35779.61751000278, "timestamp": "2025-12-27T22:26:48.280251+00:00", "meta": {"OBJECT_NAME": "GALAXY 16 (G-16)", "OBJECT_ID": "2006-023A", "EPOCH": "2025-12-27T10:49:10.357248", "MEAN_MOTION": 1.00271255, "ECCENTRICITY": 0.0002725, "INCLINATION": 0.0405, "RA_OF_ASC_NODE": 200.8037, "ARG_OF_PERICENTER": 78.6329, "MEAN_ANOMALY": 240.0267, "EPHEMERIS_TYPE": 0, "CLASSIFICATION_TYPE": "U", "NORAD_CAT_ID": 29236, "ELEMENT_SET_NO": 999, "REV_AT_EPOCH": 7125, "BSTAR": 0, "MEAN_MOTION_DOT": -1.04e-06, "MEAN_MOTION_DDOT": 0}, "tle": {"line1": "1 29236U 06023A   25361.45081432 -.00000104  00000+0  00000+0 0  9991", "line2": "2 29236   0.0405 200.8037 0002725  78.6329 240.0267  1.00271255 71253"}}, "geometry": {"type": "Point", "coordinates": [-25.633673259840723, 0.021063312975640746]}}, {"type": "Feature", "properties": {"norad_id": 29494, "name": "DIRECTV 9S", "group": "intelsat", "lat": -1.859078607344874, "lon": -27.83312933463003, "alt_km": 35778.05646026278, "timestamp": "2025-12-27T22:26:48.280262+00:00", "meta": {"OBJECT_NAME": "DIRECTV 9S", "OBJECT_ID": "2006-043A", "EPOCH": "2025-12-27T10:48:32.915808", "MEAN_MOTION": 1.00271274, "ECCENTRICITY": 0.0003149, "INCLINATION": 1.9762, "RA_OF_ASC_NODE": 83.0517, "ARG_OF_PERICENTER": 198.3499, "MEAN_ANOMALY": 235.7124, "EPHEMERIS_TYPE": 0, "CLASSIFICATION_TYPE": "U", "NORAD_CAT_ID": 29494, "ELEMENT_SET_NO": 999, "REV_AT_EPOCH": 4966, "BSTAR": 0, "MEAN_MOTION_DOT": -9.2e-07, "MEAN_MOTION_DDOT": 0}, "tle": {"line1": "1 29494U 06043A   25361.45038097 -.00000092  00000+0  00000+0 0  9994", "line2": "2 29494   1.9762  83.0517 0003149 198.3499 235.7124  1.00271274 49662"}}, "geometry": {"type": "Point", "coordinates": [-27.83312933463003, -1.859078607344874]}}, {"type": "Feature", "properties": {"norad_id": 31307, "name": "GALAXY 17 (G-17)", "group": "intelsat", "lat": -2.5381751775085397, "lon": -11.57130468339851, "alt_km": 35786.94420038774, "timestamp": "2025-12-27T22:26:48.280273+00:00", "meta": {"OBJECT_NAME": "GALAXY 17 (G-17)", "OBJECT_ID": "2007-016B", "EPOCH": "2025-12-27T09:00:15.456096", "MEAN_MOTION": 1.00271388, "ECCENTRICITY": 0.0005653, "INCLINATION": 2.5348, "RA_OF_ASC_NODE": 82.1173, "ARG_OF_PERICENTER": 175.2392, "MEAN_ANOMALY": 248.8273, "EPHEMERIS_TYPE": 0, "CLASSIFICATION_TYPE": "U", "NORAD_CAT_ID": 31307, "ELEMENT_SET_NO": 999, "REV_AT_EPOCH": 6808, "BSTAR": 0, "MEAN_MOTION_DOT": -1.85e-06, "MEAN_MOTION_DDOT": 0}, "tle": {"line1": "1 31307U 07016B   25361.37517889 -.00000185  00000+0  00000+0 0  9996", "line2": "2 31307   2.5348  82.1173 0005653 175.2392 248.8273  1.00271388 68084"}}, "geometry": {"type": "Point", "coordinates": [-11.57130468339851, -2.5381751775085397]}}, {"type": "Feature", "properties": {"norad_id": 31862, "name": "DIRECTV 10", "group": "intelsat", "lat": -8.997738630416033e-05, "lon": -29.527686434052256, "alt_km": 35799.509349915716, "timestamp": "2025-12-27T22:26:48.280285+00:00", "meta": {"OBJECT_NAME": "DIRECTV 10", "OBJECT_ID": "2007-032A", "EPOCH": "2025-12-27T10:48:02.965248", "MEAN_MOTION": 1.00240419, "ECCENTRICITY": 0.0001678, "INCLINATION": 0.0193, "RA_OF_ASC_NODE": 182.9254, "ARG_OF_PERICENTER": 278.2251, "MEAN_ANOMALY": 54.2314, "EPHEMERIS_TYPE": 0, "CLASSIFICATION_TYPE": "U", "NORAD_CAT_ID": 31862, "ELEMENT_SET_NO": 999, "REV_AT_EPOCH": 4387, "BSTAR": 0, "MEAN_MOTION_DOT": -7.6e-07, "MEAN_MOTION_DDOT": 0}, "tle": {"line1": "1 31862U 07032A   25361.45003432 -.00000076  00000+0  00000+0 0  9992", "line2": "2 31862   0.0193 182.9254 0001678 278.2251  54.2314  1.00240419 43877"}}, "geometry": {"type": "Point", "coordinates": [-29.527686434052256, -8.997738630416033e-05]}}, {"type": "Feature", "properties": {"norad_id": 32253, "name": "INTELSAT 11 (IS-11)", "group": "intelsat", "lat": 1.4777783508992928, "lon": -127.7160959993659, "alt_km": 36096.5775808009, "timestamp": "2025-12-27T22:26:48.280297+00:00", "meta": {"OBJECT_NAME": "INTELSAT 11 (IS-11)", "OBJECT_ID": "2007-044B", "EPOCH": "2025-12-27T10:20:35.592864", "MEAN_MOTION": 0.99052886, "ECCENTRICITY": 0.0008682, "INCLINATION": 3.1165, "RA_OF_ASC_NODE": 80.8097, "ARG_OF_PERICENTER": 172.4291, "MEAN_ANOMALY": 159.2123, "EPHEMERIS_TYPE": 0, "CLASSIFICATION_TYPE": "U", "NORAD_CAT_ID": 32253, "ELEMENT_SET_NO": 999, "REV_AT_EPOCH": 6674, "BSTAR": 0, "MEAN_MOTION_DOT": -2.34e-06, "MEAN_MOTION_DDOT": 0}, "tle": {"line1": "1 32253U 07044B   25361.43096751 -.00000234  00000+0  00000+0 0  9990", "line2": "2 32253   3.1165  80.8097 0008682 172.4291 159.2123  0.99052886 66748"}}, "geometry": {"type": "Point", "coordinates": [-127.7160959993659, 1.4777783508992928]}}, {"type": "Feature", "properties": {"norad_id": 32388, "name": "HORIZONS-2", "group": "intelsat", "lat": -2.147408689224117, "lon": -0.3956376671342603, "alt_km": 35783.149443242946, "timestamp": "2025-12-27T22:26:48.280309+00:00", "meta": {"OBJECT_NAME": "HORIZONS-2", "OBJECT_ID": "2007-063B", "EPOCH": "2025-12-27T10:56:17.174976", "MEAN_MOTION": 1.00272899, "ECCENTRICITY": 0.0004679, "INCLINATION": 2.158, "RA_OF_ASC_NODE": 82.798, "ARG_OF_PERICENTER": 195.3609, "MEAN_ANOMALY": 268.2883, "EPHEMERIS_TYPE": 0, "CLASSIFICATION_TYPE": "U", "NORAD_CAT_ID": 32388, "ELEMENT_SET_NO": 999, "REV_AT_EPOCH": 6609, "BSTAR": 0, "MEAN_MOTION_DOT": -2.32e-06, "MEAN_MOTION_DDOT": 0}, "tle": {"line1": "1 32388U 07063B   25361.45575434 -.00000232  00000+0  00000+0 0  9990", "line2": "2 32388   2.1580  82.7980 0004679 195.3609 268.2883  1.00272899 66091"}}, "geometry": {"type": "Point", "coordinates": [-0.3956376671342603, -2.147408689224117]}}, {"type": "Feature", "properties": {"norad_id": 32729, "name": "DIRECTV 11", "group": "intelsat", "lat": -0.0027589004066447564, "lon": -25.82653983842218, "alt_km": 35787.72551211147, "timestamp": "2025-12-27T22:26:48.280320+00:00", "meta": {"OBJECT_NAME": "DIRECTV 11", "OBJECT_ID": "2008-013A", "EPOCH": "2025-12-27T09:06:20.204064", "MEAN_MOTION": 1.00274985, "ECCENTRICITY": 7.14e-05, "INCLINATION": 0.0328, "RA_OF_ASC_NODE": 193.5554, "ARG_OF_PERICENTER": 353.1899, "MEAN_ANOMALY": 306.7597, "EPHEMERIS_TYPE": 0, "CLASSIFICATION_TYPE": "U", "NORAD_CAT_ID": 32729, "ELEMENT_SET_NO": 999, "REV_AT_EPOCH": 4387, "BSTAR": 0, "MEAN_MOTION_DOT": -1.04e-06, "MEAN_MOTION_DDOT": 0}, "tle": {"line1": "1 32729U 08013A   25361.37940051 -.00000104  00000+0  00000+0 0  9995", "line2": "2 32729   0.0328 193.5554 0000714 353.1899 306.7597  1.00274985 43875"}}, "geometry": {"type": "Point", "coordinates": [-25.82653983842218, -0.0027589004066447564]}}, {"type": "Feature", "properties": {"norad_id": 32951, "name": "GALAXY 18 (G-18)", "group": "intelsat", "lat": -0.03307477739947838, "lon": -49.638878331471254, "alt_km": 35773.20621468421, "timestamp": "2025-12-27T22:26:48.280332+00:00", "meta": {"OBJECT_NAME": "GALAXY 18 (G-18)", "OBJECT_ID": "2008-024A", "EPOCH": "2025-12-27T10:42:18.514368", "MEAN_MOTION": 1.00271409, "ECCENTRICITY": 0.0003384, "INCLINATION": 0.0202, "RA_OF_ASC_NODE": 8.4916, "ARG_OF_PERICENTER": 276.7397, "MEAN_ANOMALY": 208.5148, "EPHEMERIS_TYPE": 0, "CLASSIFICATION_TYPE": "U", "NORAD_CAT_ID": 32951, "ELEMENT_SET_NO": 999, "REV_AT_EPOCH": 4413, "BSTAR": 0, "MEAN_MOTION_DOT": 0, "MEAN_MOTION_DDOT": 0}, "tle": {"line1": "1 32951U 08024A   25361.44604762  .00000000  00000+0  00000+0 0  9992", "line2": "2 32951   0.0202   8.4916 0003384 276.7397 208.5148  1.00271409 44137"}}, "geometry": {"type": "Point", "coordinates": [-49.638878331471254, -0.03307477739947838]}}]}